CCSDS_OEM_VERS = 1.0
CREATION_DATE  = 2017-05-11T11:40:16
ORIGINATOR     = GMAT USER

META_START
OBJECT_NAME          = MOPSSat_alt_35785_km_RAAN_180_117
OBJECT_ID            = SatId
CENTER_NAME          = Earth
REF_FRAME            = EME2000
TIME_SYSTEM          = UTC
START_TIME           = 2017-01-01T00:00:00.000
USEABLE_START_TIME   = 2017-01-01T00:00:00.000
USEABLE_STOP_TIME    = 2017-01-02T00:00:00.000
STOP_TIME            = 2017-01-02T00:00:00.000
INTERPOLATION        = Lagrange
INTERPOLATION_DEGREE = 7 
META_STOP


                                                                                   

2017-01-01T14:30:50.000   4.410417360308235e+04   2.169078918702803e+04  -3.828651015172402e+03  -1.401862654741875e+00   2.146704024538406e+00  -3.785422929096295e-01
2017-01-01T14:31:00.000   4.409014764032901e+04   2.171225261695641e+04  -3.832435800861645e+03  -1.403329914536275e+00   2.145981905404801e+00  -3.784148351002063e-01
2017-01-01T14:31:10.000   4.407610700591464e+04   2.173370882172951e+04  -3.836219311273467e+03  -1.404796957878476e+00   2.145258948869158e+00  -3.782872295582776e-01
2017-01-01T14:31:20.000   4.406205170202038e+04   2.175515779294860e+04  -3.840001544926184e+03  -1.406263784438179e+00   2.144535154771617e+00  -3.781594762556667e-01
2017-01-01T14:31:30.000   4.404798173082106e+04   2.177659952222856e+04  -3.843782500340516e+03  -1.407730393885798e+00   2.143810522951686e+00  -3.780315751640846e-01
2017-01-01T14:31:40.000   4.403389709452745e+04   2.179803400113247e+04  -3.847562176028047e+03  -1.409196785887987e+00   2.143085053250408e+00  -3.779035262555144e-01
2017-01-01T14:31:50.000   4.401979779537061e+04   2.181946122119737e+04  -3.851340570495762e+03  -1.410662960109387e+00   2.142358745509569e+00  -3.777753295020703e-01
2017-01-01T14:32:00.000   4.400568383559343e+04   2.184088117394580e+04  -3.855117682248107e+03  -1.412128916213435e+00   2.141631599571251e+00  -3.776469848759175e-01
2017-01-01T14:32:10.000   4.399155521743350e+04   2.186229385091157e+04  -3.858893509791495e+03  -1.413594653864112e+00   2.140903615276954e+00  -3.775184923491200e-01
2017-01-01T14:32:20.000   4.397741194311621e+04   2.188369924365196e+04  -3.862668051636499e+03  -1.415060172726784e+00   2.140174792467239e+00  -3.773898518935759e-01
2017-01-01T14:32:30.000   4.396325401483702e+04   2.190509734377265e+04  -3.866441306302201e+03  -1.416525472469905e+00   2.139445130980818e+00  -3.772610634808565e-01
2017-01-01T14:32:40.000   4.394908143480487e+04   2.192648814286269e+04  -3.870213272304777e+03  -1.417990552760573e+00   2.138714630656787e+00  -3.771321270826006e-01
2017-01-01T14:32:50.000   4.393489420505414e+04   2.194787163277581e+04  -3.873983948207057e+03  -1.419455413283814e+00   2.137983291324920e+00  -3.770030426688033e-01
2017-01-01T14:33:00.000   4.392069232767214e+04   2.196924780528947e+04  -3.877753332558431e+03  -1.420920053719208e+00   2.137251112817421e+00  -3.768738102098870e-01
2017-01-01T14:33:10.000   4.390647580471337e+04   2.199061665223381e+04  -3.881521423917578e+03  -1.422384473749724e+00   2.136518094964484e+00  -3.767444296759201e-01
2017-01-01T14:33:20.000   4.389224463853181e+04   2.201197816499197e+04  -3.885288220764349e+03  -1.423848673027481e+00   2.135784237611433e+00  -3.766149010396415e-01
2017-01-01T14:33:30.000   4.387799883144865e+04   2.203333233499978e+04  -3.889053721587895e+03  -1.425312651207987e+00   2.135049540601594e+00  -3.764852242734376e-01
2017-01-01T14:33:40.000   4.386373838583800e+04   2.205467915361678e+04  -3.892817924863904e+03  -1.426776407941301e+00   2.134314003780707e+00  -3.763553993501206e-01
2017-01-01T14:33:50.000   4.384946330390077e+04   2.207601861246781e+04  -3.896580829114861e+03  -1.428239942895427e+00   2.133577626985276e+00  -3.762254262408731e-01
2017-01-01T14:34:00.000   4.383517358785098e+04   2.209735070316101e+04  -3.900342432860284e+03  -1.429703255737004e+00   2.132840410052170e+00  -3.760953049169413e-01
2017-01-01T14:34:10.000   4.382086923987290e+04   2.211867541735273e+04  -3.904102734628219e+03  -1.431166346135756e+00   2.132102352816409e+00  -3.759650353492463e-01
2017-01-01T14:34:20.000   4.380655026213663e+04   2.213999274672209e+04  -3.907861732950706e+03  -1.432629213762758e+00   2.131363455111975e+00  -3.758346175085256e-01
2017-01-01T14:34:30.000   4.379221665680733e+04   2.216130268295930e+04  -3.911619426361750e+03  -1.434091858289622e+00   2.130623716772274e+00  -3.757040513654143e-01
2017-01-01T14:34:40.000   4.377786842606196e+04   2.218260521774023e+04  -3.915375813392825e+03  -1.435554279386751e+00   2.129883137631018e+00  -3.755733368906026e-01
2017-01-01T14:34:50.000   4.376350557209671e+04   2.220390034271403e+04  -3.919130892570698e+03  -1.437016476722508e+00   2.129141717522590e+00  -3.754424740548990e-01
2017-01-01T14:35:00.000   4.374912809714486e+04   2.222518804947858e+04  -3.922884662413091e+03  -1.438478449961506e+00   2.128399456282982e+00  -3.753114628293955e-01
2017-01-01T14:35:10.000   4.373473600343271e+04   2.224646832964498e+04  -3.926637121440050e+03  -1.439940198769043e+00   2.127656353747509e+00  -3.751803031850651e-01
2017-01-01T14:35:20.000   4.372032929337063e+04   2.226774117455777e+04  -3.930388268124640e+03  -1.441401722791866e+00   2.126912409760687e+00  -3.750489950945054e-01
2017-01-01T14:35:30.000   4.370590796932185e+04   2.228900657563419e+04  -3.934138100952717e+03  -1.442863021681486e+00   2.126167624164288e+00  -3.749175385298281e-01
2017-01-01T14:35:40.000   4.369147203368826e+04   2.231026452423777e+04  -3.937886618400688e+03  -1.444324095085502e+00   2.125421996801768e+00  -3.747859334634439e-01
2017-01-01T14:35:50.000   4.367702148857864e+04   2.233151501216760e+04  -3.941633819021756e+03  -1.445784942681219e+00   2.124675527501128e+00  -3.746541798650349e-01
2017-01-01T14:36:00.000   4.366255633613935e+04   2.235275803117033e+04  -3.945379701359875e+03  -1.447245564142110e+00   2.123928216092010e+00  -3.745222777045729e-01
2017-01-01T14:36:10.000   4.364807657847991e+04   2.237399357305086e+04  -3.949124263969276e+03  -1.448705959145423e+00   2.123180062401829e+00  -3.743902269516372e-01
2017-01-01T14:36:20.000   4.363358221785827e+04   2.239522162939629e+04  -3.952867505365781e+03  -1.450166127353232e+00   2.122431066265356e+00  -3.742580275771052e-01
2017-01-01T14:36:30.000   4.361907325654379e+04   2.241644219178120e+04  -3.956609424063005e+03  -1.451626068426513e+00   2.121681227517644e+00  -3.741256795519036e-01
2017-01-01T14:36:40.000   4.360454969681639e+04   2.243765525176718e+04  -3.960350018572275e+03  -1.453085782025130e+00   2.120930545993972e+00  -3.739931828470003e-01
2017-01-01T14:36:50.000   4.359001154110820e+04   2.245886080069988e+04  -3.964089287366834e+03  -1.454545267793830e+00   2.120179021537189e+00  -3.738605374346975e-01
2017-01-01T14:37:00.000   4.357545879181346e+04   2.248005882998282e+04  -3.967827228930137e+03  -1.456004525381116e+00   2.119426653987870e+00  -3.737277432868983e-01
2017-01-01T14:37:10.000   4.356089145136337e+04   2.250124933096934e+04  -3.971563841736788e+03  -1.457463554431812e+00   2.118673443188184e+00  -3.735948003757861e-01
2017-01-01T14:37:20.000   4.354630952189721e+04   2.252243229544092e+04  -3.975299124336884e+03  -1.458922354619982e+00   2.117919388964906e+00  -3.734617086708266e-01
2017-01-01T14:37:30.000   4.353171300559089e+04   2.254360771512879e+04  -3.979033075271672e+03  -1.460380925616006e+00   2.117164491146386e+00  -3.733284681417650e-01
2017-01-01T14:37:40.000   4.351710190458310e+04   2.256477558182230e+04  -3.982765693092630e+03  -1.461839267094028e+00   2.116408749558741e+00  -3.731950787579511e-01
2017-01-01T14:37:50.000   4.350247622116236e+04   2.258593588709361e+04  -3.986496976312949e+03  -1.463297378713033e+00   2.115652164035517e+00  -3.730615404900466e-01
2017-01-01T14:38:00.000   4.348783595762867e+04   2.260708862250240e+04  -3.990226923443619e+03  -1.464755260130905e+00   2.114894734410540e+00  -3.729278533087635e-01
2017-01-01T14:38:10.000   4.347318111629272e+04   2.262823377959537e+04  -3.993955532993348e+03  -1.466212911004414e+00   2.114136460517879e+00  -3.727940171848552e-01
2017-01-01T14:38:20.000   4.345851169961873e+04   2.264937134970399e+04  -3.997682803432874e+03  -1.467670330975227e+00   2.113377342199243e+00  -3.726600320904246e-01
2017-01-01T14:38:30.000   4.344382771003274e+04   2.267050132421736e+04  -4.001408733243110e+03  -1.469127519688759e+00   2.112617379294052e+00  -3.725258979971708e-01
2017-01-01T14:38:40.000   4.342912914999945e+04   2.269162369447255e+04  -4.005133320895794e+03  -1.470584476786605e+00   2.111856571643417e+00  -3.723916148770904e-01
2017-01-01T14:38:50.000   4.341441602168490e+04   2.271273845223925e+04  -4.008856564938948e+03  -1.472041201939961e+00   2.111094919072674e+00  -3.722571826993969e-01
2017-01-01T14:39:00.000   4.339968832729441e+04   2.273384558923382e+04  -4.012578463911188e+03  -1.473497694816116e+00   2.110332421408887e+00  -3.721226014336078e-01
2017-01-01T14:39:10.000   4.338494606898555e+04   2.275494509724478e+04  -4.016299016363858e+03  -1.474953955087101e+00   2.109569078476329e+00  -3.719878710487493e-01
2017-01-01T14:39:20.000   4.337018924910184e+04   2.277603696779511e+04  -4.020018220801478e+03  -1.476409982406407e+00   2.108804890108589e+00  -3.718529915154909e-01
2017-01-01T14:39:30.000   4.335541786998015e+04   2.279712119242104e+04  -4.023736075730900e+03  -1.477865776428209e+00   2.108039856138595e+00  -3.717179628043859e-01
2017-01-01T14:39:40.000   4.334063193399365e+04   2.281819776260982e+04  -4.027452579650345e+03  -1.479321336803062e+00   2.107273976400844e+00  -3.715827848862647e-01
2017-01-01T14:39:50.000   4.332583144354105e+04   2.283926666981712e+04  -4.031167731052461e+03  -1.480776663179092e+00   2.106507250730851e+00  -3.714474577321367e-01
